[
    {
        "Altitude(m)": 702878.9129629334,
        "Argument of Periapsis(deg)": 0.006834072711976239,
        "Eccentricity": 0.0,
        "Inclination(deg)": 45.0,
        "Latitude(deg)": 17.969643600310647,
        "Longitude(deg)": -74.27182719749304,
        "Mean Anomaly(deg)": -205.80737001151152,
        "RAAN(deg)": 224.99354883512507,
        "Satellite Name": "Constellation 1 999",
        "Satellite Number": 999,
        "Semi-Major Axis(m)": 7083131.272910544,
        "Time(s)": 114
    },
    {
        "Altitude(m)": 702876.3645570744,
        "Argument of Periapsis(deg)": 0.006894020718221645,
        "Eccentricity": 0.0,
        "Inclination(deg)": 45.0,
        "Latitude(deg)": 17.92875451288986,
        "Longitude(deg)": -74.2285933239344,
        "Mean Anomaly(deg)": -205.74666887126162,
        "RAAN(deg)": 224.99349224595952,
        "Satellite Name": "Constellation 1 999",
        "Satellite Number": 999,
        "Semi-Major Axis(m)": 7083131.272910544,
        "Time(s)": 115
    },
    {
        "Altitude(m)": 702873.8316016505,
        "Argument of Periapsis(deg)": 0.006953968724467052,
        "Eccentricity": 0.0,
        "Inclination(deg)": 45.0,
        "Latitude(deg)": 17.88785375739453,
        "Longitude(deg)": -74.18538118959965,
        "Mean Anomaly(deg)": -205.68596773101177,
        "RAAN(deg)": 224.9934356567939,
        "Satellite Name": "Constellation 1 999",
        "Satellite Number": 999,
        "Semi-Major Axis(m)": 7083131.272910544,
        "Time(s)": 116
    },
    {
        "Altitude(m)": 702871.3141252764,
        "Argument of Periapsis(deg)": 0.007013916730712457,
        "Eccentricity": 0.0,
        "Inclination(deg)": 45.0,
        "Latitude(deg)": 17.846941367437818,
        "Longitude(deg)": -74.14219073783784,
        "Mean Anomaly(deg)": -205.62526659076178,
        "RAAN(deg)": 224.99337906762835,
        "Satellite Name": "Constellation 1 999",
        "Satellite Number": 999,
        "Semi-Major Axis(m)": 7083131.272910544,
        "Time(s)": 117
    },
    {
        "Altitude(m)": 702868.8121565222,
        "Argument of Periapsis(deg)": 0.007073864736957864,
        "Eccentricity": 0.0,
        "Inclination(deg)": 45.0,
        "Latitude(deg)": 17.806017376590358,
        "Longitude(deg)": -74.09902191202899,
        "Mean Anomaly(deg)": -205.56456545051194,
        "RAAN(deg)": 224.9933224784628,
        "Satellite Name": "Constellation 1 999",
        "Satellite Number": 999,
        "Semi-Major Axis(m)": 7083131.272910544,
        "Time(s)": 118
    },
    {
        "Altitude(m)": 702866.3257238799,
        "Argument of Periapsis(deg)": 0.0071338127432032696,
        "Eccentricity": 0.0,
        "Inclination(deg)": 45.0,
        "Latitude(deg)": 17.76508181838009,
        "Longitude(deg)": -74.05587482368075,
        "Mean Anomaly(deg)": -205.503864310262,
        "RAAN(deg)": 224.99326588929722,
        "Satellite Name": "Constellation 1 999",
        "Satellite Number": 999,
        "Semi-Major Axis(m)": 7083131.272910544,
        "Time(s)": 119
    },
    {
        "Altitude(m)": 702863.8548557945,
        "Argument of Periapsis(deg)": 0.007193760749448674,
        "Eccentricity": 0.0,
        "Inclination(deg)": 45.0,
        "Latitude(deg)": 17.72413472629264,
        "Longitude(deg)": -74.01274908004066,
        "Mean Anomaly(deg)": -205.44316317001213,
        "RAAN(deg)": 224.99320930013167,
        "Satellite Name": "Constellation 1 999",
        "Satellite Number": 999,
        "Semi-Major Axis(m)": 7083131.272910544,
        "Time(s)": 120
    },
    {
        "Altitude(m)": 702861.3995806386,
        "Argument of Periapsis(deg)": 0.007253708755694079,
        "Eccentricity": 0.0,
        "Inclination(deg)": 45.0,
        "Latitude(deg)": 17.683176133771198,
        "Longitude(deg)": -73.96964479267803,
        "Mean Anomaly(deg)": -205.38246202976222,
        "RAAN(deg)": 224.99315271096611,
        "Satellite Name": "Constellation 1 999",
        "Satellite Number": 999,
        "Semi-Major Axis(m)": 7083131.272910544,
        "Time(s)": 121
    },
    {
        "Altitude(m)": 702858.9599267278,
        "Argument of Periapsis(deg)": 0.0073136567619394854,
        "Eccentricity": 0.0,
        "Inclination(deg)": 45.0,
        "Latitude(deg)": 17.642206074216833,
        "Longitude(deg)": -73.92656190509598,
        "Mean Anomaly(deg)": -205.32176088951232,
        "RAAN(deg)": 224.9930961218005,
        "Satellite Name": "Constellation 1 999",
        "Satellite Number": 999,
        "Semi-Major Axis(m)": 7083131.272910544,
        "Time(s)": 122
    },
    {
        "Altitude(m)": 702856.5359223176,
        "Argument of Periapsis(deg)": 0.0073736047681848904,
        "Eccentricity": 0.0,
        "Inclination(deg)": 45.0,
        "Latitude(deg)": 17.601224580988426,
        "Longitude(deg)": -73.88350036082845,
        "Mean Anomaly(deg)": -205.26105974926244,
        "RAAN(deg)": 224.99303953263495,
        "Satellite Name": "Constellation 1 999",
        "Satellite Number": 999,
        "Semi-Major Axis(m)": 7083131.272910544,
        "Time(s)": 123
    },
    {
        "Altitude(m)": 702854.1275955928,
        "Argument of Periapsis(deg)": 0.007433552774430298,
        "Eccentricity": 0.0,
        "Inclination(deg)": 45.0,
        "Latitude(deg)": 17.560231687402926,
        "Longitude(deg)": -73.84046010344028,
        "Mean Anomaly(deg)": -205.20035860901254,
        "RAAN(deg)": 224.99298294346937,
        "Satellite Name": "Constellation 1 999",
        "Satellite Number": 999,
        "Semi-Major Axis(m)": 7083131.272910544,
        "Time(s)": 124
    },
    {
        "Altitude(m)": 702851.7349746927,
        "Argument of Periapsis(deg)": 0.007493500780675703,
        "Eccentricity": 0.0,
        "Inclination(deg)": 45.0,
        "Latitude(deg)": 17.519227426735405,
        "Longitude(deg)": -73.79744107652726,
        "Mean Anomaly(deg)": -205.1396574687626,
        "RAAN(deg)": 224.99292635430382,
        "Satellite Name": "Constellation 1 999",
        "Satellite Number": 999,
        "Semi-Major Axis(m)": 7083131.272910544,
        "Time(s)": 125
    },
    {
        "Altitude(m)": 702849.3580876766,
        "Argument of Periapsis(deg)": 0.007553448786921108,
        "Eccentricity": 0.0,
        "Inclination(deg)": 45.0,
        "Latitude(deg)": 17.47821183221917,
        "Longitude(deg)": -73.75444339181298,
        "Mean Anomaly(deg)": -205.07895632851276,
        "RAAN(deg)": 224.99286976513827,
        "Satellite Name": "Constellation 1 999",
        "Satellite Number": 999,
        "Semi-Major Axis(m)": 7083131.272910544,
        "Time(s)": 126
    },
    {
        "Altitude(m)": 702846.9969625495,
        "Argument of Periapsis(deg)": 0.007613396793166514,
        "Eccentricity": 0.0,
        "Inclination(deg)": 45.0,
        "Latitude(deg)": 17.437184937045885,
        "Longitude(deg)": -73.71146665676102,
        "Mean Anomaly(deg)": -205.0182551882628,
        "RAAN(deg)": 224.99281317597266,
        "Satellite Name": "Constellation 1 999",
        "Satellite Number": 999,
        "Semi-Major Axis(m)": 7083131.272910544,
        "Time(s)": 127
    },
    {
        "Altitude(m)": 702844.651627256,
        "Argument of Periapsis(deg)": 0.007673344799411918,
        "Eccentricity": 0.0,
        "Inclination(deg)": 45.0,
        "Latitude(deg)": 17.3961467743658,
        "Longitude(deg)": -73.66851098315699,
        "Mean Anomaly(deg)": -204.95755404801292,
        "RAAN(deg)": 224.9927565868071,
        "Satellite Name": "Constellation 1 999",
        "Satellite Number": 999,
        "Semi-Major Axis(m)": 7083131.272910544,
        "Time(s)": 128
    },
    {
        "Altitude(m)": 702842.3221096712,
        "Argument of Periapsis(deg)": 0.007733292805657325,
        "Eccentricity": 0.0,
        "Inclination(deg)": 45.0,
        "Latitude(deg)": 17.355097377287564,
        "Longitude(deg)": -73.6255763147202,
        "Mean Anomaly(deg)": -204.89685290776305,
        "RAAN(deg)": 224.99269999764155,
        "Satellite Name": "Constellation 1 999",
        "Satellite Number": 999,
        "Semi-Major Axis(m)": 7083131.272910544,
        "Time(s)": 129
    },
    {
        "Altitude(m)": 702840.008437614,
        "Argument of Periapsis(deg)": 0.00779324081190273,
        "Eccentricity": 0.0,
        "Inclination(deg)": 45.0,
        "Latitude(deg)": 17.314036778878638,
        "Longitude(deg)": -73.5826625952011,
        "Mean Anomaly(deg)": -204.83615176751312,
        "RAAN(deg)": 224.99264340847597,
        "Satellite Name": "Constellation 1 999",
        "Satellite Number": 999,
        "Semi-Major Axis(m)": 7083131.272910544,
        "Time(s)": 130
    },
    {
        "Altitude(m)": 702837.7106388304,
        "Argument of Periapsis(deg)": 0.007853188818148135,
        "Eccentricity": 0.0,
        "Inclination(deg)": 45.0,
        "Latitude(deg)": 17.272965012165336,
        "Longitude(deg)": -73.53976976838118,
        "Mean Anomaly(deg)": -204.77545062726327,
        "RAAN(deg)": 224.99258681931042,
        "Satellite Name": "Constellation 1 999",
        "Satellite Number": 999,
        "Semi-Major Axis(m)": 7083131.272910544,
        "Time(s)": 131
    },
    {
        "Altitude(m)": 702835.4287410186,
        "Argument of Periapsis(deg)": 0.007913136824393542,
        "Eccentricity": 0.0,
        "Inclination(deg)": 45.0,
        "Latitude(deg)": 17.23188211013273,
        "Longitude(deg)": -73.49689777807276,
        "Mean Anomaly(deg)": -204.71474948701334,
        "RAAN(deg)": 224.9925302301448,
        "Satellite Name": "Constellation 1 999",
        "Satellite Number": 999,
        "Semi-Major Axis(m)": 7083131.272910544,
        "Time(s)": 132
    }
]